{
  "type": "FeatureCollection",
  "features": [
    {
      "type": "Feature",
      "properties": {
        "norad_id": 33939,
        "name": "COSMOS 2251 DEB",
        "group": "cosmos-2251-debris",
        "lat": 26.20885539143408,
        "lon": 87.56995385994438,
        "alt_km": 563.4733169024903,
        "timestamp": "2025-12-13T07:35:41.898014+00:00",
        "meta_object_name": "COSMOS 2251 DEB",
        "meta_object_id": "1993-036EU",
        "meta_epoch": "2025-12-12T23:28:11.338464",
        "meta_mean_motion": 14.99927892,
        "meta_eccentricity": 0.00037144,
        "meta_inclination": 74.0063,
        "meta_ra_of_asc_node": 80.1422,
        "meta_arg_of_pericenter": 55.5816,
        "meta_mean_anomaly": 304.5722,
        "meta_ephemeris_type": 0,
        "meta_classification_type": "U",
        "meta_norad_cat_id": 33939,
        "meta_element_set_no": 999,
        "meta_rev_at_epoch": 88756,
        "meta_bstar": 0.0045420732,
        "meta_mean_motion_dot": 0.00056827,
        "meta_mean_motion_ddot": 0,
        "tle_line1": "1 33939U 93036EU  25346.97790901  .00056827  00000+0  45421-2 0  9995",
        "tle_line2": "2 33939  74.0063  80.1422 0003714  55.5816 304.5722 14.99927892887568"
      },
      "geometry": {
        "type": "Point",
        "coordinates": [
          87.56995385994438,
          26.20885539143408
        ]
      }
    },
    {
      "type": "Feature",
      "properties": {
        "norad_id": 33940,
        "name": "COSMOS 2251 DEB",
        "group": "cosmos-2251-debris",
        "lat": 66.52589421603409,
        "lon": -176.37709044491766,
        "alt_km": 697.1009556508152,
        "timestamp": "2025-12-13T07:35:41.898023+00:00",
        "meta_object_name": "COSMOS 2251 DEB",
        "meta_object_id": "1993-036EV",
        "meta_epoch": "2025-12-12T16:30:44.042400",
        "meta_mean_motion": 14.58794981,
        "meta_eccentricity": 0.00113228,
        "meta_inclination": 74.0395,
        "meta_ra_of_asc_node": 143.5952,
        "meta_arg_of_pericenter": 223.478,
        "meta_mean_anomaly": 150.1367,
        "meta_ephemeris_type": 0,
        "meta_classification_type": "U",
        "meta_norad_cat_id": 33940,
        "meta_element_set_no": 999,
        "meta_rev_at_epoch": 88593,
        "meta_bstar": 0.0017114518,
        "meta_mean_motion_dot": 7.987e-05,
        "meta_mean_motion_ddot": 0,
        "tle_line1": "1 33940U 93036EV  25346.68800975  .00007987  00000+0  17115-2 0  9990",
        "tle_line2": "2 33940  74.0395 143.5952 0011322 223.4780 150.1367 14.58794981885935"
      },
      "geometry": {
        "type": "Point",
        "coordinates": [
          -176.37709044491766,
          66.52589421603409
        ]
      }
    },
    {
      "type": "Feature",
      "properties": {
        "norad_id": 33942,
        "name": "COSMOS 2251 DEB",
        "group": "cosmos-2251-debris",
        "lat": -44.385274715254155,
        "lon": 110.03651133430027,
        "alt_km": 780.8669556636578,
        "timestamp": "2025-12-13T07:35:41.898033+00:00",
        "meta_object_name": "COSMOS 2251 DEB",
        "meta_object_id": "1993-036EX",
        "meta_epoch": "2025-12-12T20:47:10.849920",
        "meta_mean_motion": 14.37989336,
        "meta_eccentricity": 0.00203261,
        "meta_inclination": 74.0367,
        "meta_ra_of_asc_node": 274.5958,
        "meta_arg_of_pericenter": 357.8548,
        "meta_mean_anomaly": 58.4567,
        "meta_ephemeris_type": 0,
        "meta_classification_type": "U",
        "meta_norad_cat_id": 33942,
        "meta_element_set_no": 999,
        "meta_rev_at_epoch": 88136,
        "meta_bstar": 0.00038337272,
        "meta_mean_motion_dot": 1.136e-05,
        "meta_mean_motion_ddot": 0,
        "tle_line1": "1 33942U 93036EX  25346.86609780  .00001136  00000+0  38337-3 0  9993",
        "tle_line2": "2 33942  74.0367 274.5958 0020326 357.8548  58.4567 14.37989336881367"
      },
      "geometry": {
        "type": "Point",
        "coordinates": [
          110.03651133430027,
          -44.385274715254155
        ]
      }
    },
    {
      "type": "Feature",
      "properties": {
        "norad_id": 33944,
        "name": "COSMOS 2251 DEB",
        "group": "cosmos-2251-debris",
        "lat": 70.71477318751371,
        "lon": 72.99464680717563,
        "alt_km": 711.9518367639484,
        "timestamp": "2025-12-13T07:35:41.898042+00:00",
        "meta_object_name": "COSMOS 2251 DEB",
        "meta_object_id": "1993-036EZ",
        "meta_epoch": "2025-12-12T23:02:26.706912",
        "meta_mean_motion": 14.37344189,
        "meta_eccentricity": 0.01121903,
        "meta_inclination": 74.0402,
        "meta_ra_of_asc_node": 308.5206,
        "meta_arg_of_pericenter": 48.0636,
        "meta_mean_anomaly": 8.2807,
        "meta_ephemeris_type": 0,
        "meta_classification_type": "U",
        "meta_norad_cat_id": 33944,
        "meta_element_set_no": 999,
        "meta_rev_at_epoch": 88031,
        "meta_bstar": 0.00053735331,
        "meta_mean_motion_dot": 1.698e-05,
        "meta_mean_motion_ddot": 0,
        "tle_line1": "1 33944U 93036EZ  25346.96003133  .00001698  00000+0  53735-3 0  9998",
        "tle_line2": "2 33944  74.0402 308.5206 0112190  48.0636   8.2807 14.37344189880316"
      },
      "geometry": {
        "type": "Point",
        "coordinates": [
          72.99464680717563,
          70.71477318751371
        ]
      }
    },
    {
      "type": "Feature",
      "properties": {
        "norad_id": 33945,
        "name": "COSMOS 2251 DEB",
        "group": "cosmos-2251-debris",
        "lat": -62.207307527388835,
        "lon": 158.11983344274475,
        "alt_km": 795.9624836176026,
        "timestamp": "2025-12-13T07:35:41.898051+00:00",
        "meta_object_name": "COSMOS 2251 DEB",
        "meta_object_id": "1993-036FA",
        "meta_epoch": "2025-12-12T23:45:11.375136",
        "meta_mean_motion": 14.34601311,
        "meta_eccentricity": 0.00219003,
        "meta_inclination": 74.0298,
        "meta_ra_of_asc_node": 305.8089,
        "meta_arg_of_pericenter": 32.0892,
        "meta_mean_anomaly": 328.1588,
        "meta_ephemeris_type": 0,
        "meta_classification_type": "U",
        "meta_norad_cat_id": 33945,
        "meta_element_set_no": 999,
        "meta_rev_at_epoch": 88019,
        "meta_bstar": 0.00022193288,
        "meta_mean_motion_dot": 6.03e-06,
        "meta_mean_motion_ddot": 0,
        "tle_line1": "1 33945U 93036FA  25346.98971499  .00000603  00000+0  22193-3 0  9999",
        "tle_line2": "2 33945  74.0298 305.8089 0021900  32.0892 328.1588 14.34601311880190"
      },
      "geometry": {
        "type": "Point",
        "coordinates": [
          158.11983344274475,
          -62.207307527388835
        ]
      }
    },
    {
      "type": "Feature",
      "properties": {
        "norad_id": 33948,
        "name": "COSMOS 2251 DEB",
        "group": "cosmos-2251-debris",
        "lat": 72.00165119819728,
        "lon": 62.30084600323829,
        "alt_km": 762.445701943203,
        "timestamp": "2025-12-13T07:35:41.898060+00:00",
        "meta_object_name": "COSMOS 2251 DEB",
        "meta_object_id": "1993-036FD",
        "meta_epoch": "2025-12-12T22:46:40.745280",
        "meta_mean_motion": 14.35629773,
        "meta_eccentricity": 0.0022717,
        "meta_inclination": 74.0356,
        "meta_ra_of_asc_node": 304.7497,
        "meta_arg_of_pericenter": 20.5296,
        "meta_mean_anomaly": 339.6764,
        "meta_ephemeris_type": 0,
        "meta_classification_type": "U",
        "meta_norad_cat_id": 33948,
        "meta_element_set_no": 999,
        "meta_rev_at_epoch": 88026,
        "meta_bstar": 0.00031708149,
        "meta_mean_motion_dot": 8.91e-06,
        "meta_mean_motion_ddot": 0,
        "tle_line1": "1 33948U 93036FD  25346.94908270  .00000891  00000+0  31708-3 0  9996",
        "tle_line2": "2 33948  74.0356 304.7497 0022717  20.5296 339.6764 14.35629773880260"
      },
      "geometry": {
        "type": "Point",
        "coordinates": [
          62.30084600323829,
          72.00165119819728
        ]
      }
    },
    {
      "type": "Feature",
      "properties": {
        "norad_id": 33971,
        "name": "COSMOS 2251 DEB",
        "group": "cosmos-2251-debris",
        "lat": 5.214801911992725,
        "lon": 71.16914691725054,
        "alt_km": 774.5456713355888,
        "timestamp": "2025-12-13T07:35:41.898069+00:00",
        "meta_object_name": "COSMOS 2251 DEB",
        "meta_object_id": "1993-036FE",
        "meta_epoch": "2025-12-13T00:11:13.968384",
        "meta_mean_motion": 14.39726498,
        "meta_eccentricity": 0.00185482,
        "meta_inclination": 74.025,
        "meta_ra_of_asc_node": 253.2375,
        "meta_arg_of_pericenter": 353.6463,
        "meta_mean_anomaly": 21.6929,
        "meta_ephemeris_type": 0,
        "meta_classification_type": "U",
        "meta_norad_cat_id": 33971,
        "meta_element_set_no": 999,
        "meta_rev_at_epoch": 88143,
        "meta_bstar": 0.00043496826,
        "meta_mean_motion_dot": 1.339e-05,
        "meta_mean_motion_ddot": 0,
        "tle_line1": "1 33971U 93036FE  25347.00780056  .00001339  00000+0  43497-3 0  9996",
        "tle_line2": "2 33971  74.0250 253.2375 0018548 353.6463  21.6929 14.39726498881432"
      },
      "geometry": {
        "type": "Point",
        "coordinates": [
          71.16914691725054,
          5.214801911992725
        ]
      }
    }
  ]
}